{
  "type": "FeatureCollection",
  "features": [
    {
      "type": "Feature",
      "properties": {
        "norad_id": 43823,
        "name": "GEO-KOMPSAT-2A",
        "group": "weather",
        "lat": -0.01041291487523545,
        "lon": -32.570715269666884,
        "alt_km": 35787.5567023781,
        "timestamp": "2025-12-25T07:00:33.686305+00:00",
        "meta_object_name": "GEO-KOMPSAT-2A",
        "meta_object_id": "2018-100A",
        "meta_epoch": "2025-12-24T05:33:51.801120",
        "meta_mean_motion": 1.00269294,
        "meta_eccentricity": 3.001e-05,
        "meta_inclination": 0.0444,
        "meta_ra_of_asc_node": 175.8502,
        "meta_arg_of_pericenter": 270.743,
        "meta_mean_anomaly": 218.1364,
        "meta_ephemeris_type": 0,
        "meta_classification_type": "U",
        "meta_norad_cat_id": 43823,
        "meta_element_set_no": 999,
        "meta_rev_at_epoch": 2587,
        "meta_bstar": 0,
        "meta_mean_motion_dot": -3.23e-06,
        "meta_mean_motion_ddot": 0,
        "tle_line1": "1 43823U 18100A   25358.23184955 -.00000323  00000+0  00000+0 0  9997",
        "tle_line2": "2 43823   0.0444 175.8502 0000300 270.7430 218.1364  1.00269294 25878"
      },
      "geometry": {
        "type": "Point",
        "coordinates": [
          -32.570715269666884,
          -0.01041291487523545
        ]
      }
    },
    {
      "type": "Feature",
      "properties": {
        "norad_id": 44387,
        "name": "METEOR-M2 2",
        "group": "weather",
        "lat": -76.87796757319535,
        "lon": 116.94675939055033,
        "alt_km": 819.0917354829999,
        "timestamp": "2025-12-25T07:00:33.686316+00:00",
        "meta_object_name": "METEOR-M2 2",
        "meta_object_id": "2019-038A",
        "meta_epoch": "2025-12-24T23:02:49.264224",
        "meta_mean_motion": 14.24295472,
        "meta_eccentricity": 0.00017899,
        "meta_inclination": 98.8986,
        "meta_ra_of_asc_node": 338.8389,
        "meta_arg_of_pericenter": 125.1895,
        "meta_mean_anomaly": 234.9451,
        "meta_ephemeris_type": 0,
        "meta_classification_type": "U",
        "meta_norad_cat_id": 44387,
        "meta_element_set_no": 999,
        "meta_rev_at_epoch": 33649,
        "meta_bstar": -4.5286307e-05,
        "meta_mean_motion_dot": -1.5e-06,
        "meta_mean_motion_ddot": 0,
        "tle_line1": "1 44387U 19038A   25358.96029241 -.00000150  00000+0 -45286-4 0  9999",
        "tle_line2": "2 44387  98.8986 338.8389 0001789 125.1895 234.9451 14.24295472336497"
      },
      "geometry": {
        "type": "Point",
        "coordinates": [
          116.94675939055033,
          -76.87796757319535
        ]
      }
    },
    {
      "type": "Feature",
      "properties": {
        "norad_id": 47719,
        "name": "ARKTIKA-M 1",
        "group": "weather",
        "lat": 62.933395477828135,
        "lon": -179.18717945626955,
        "alt_km": 38904.27345372379,
        "timestamp": "2025-12-25T07:00:33.686329+00:00",
        "meta_object_name": "ARKTIKA-M 1",
        "meta_object_id": "2021-016A",
        "meta_epoch": "2025-12-23T01:01:51.743136",
        "meta_mean_motion": 2.00630806,
        "meta_eccentricity": 0.72093828,
        "meta_inclination": 63.1759,
        "meta_ra_of_asc_node": 82.5898,
        "meta_arg_of_pericenter": 269.1646,
        "meta_mean_anomaly": 15.5425,
        "meta_ephemeris_type": 0,
        "meta_classification_type": "U",
        "meta_norad_cat_id": 47719,
        "meta_element_set_no": 999,
        "meta_rev_at_epoch": 3525,
        "meta_bstar": 0,
        "meta_mean_motion_dot": -6.7e-07,
        "meta_mean_motion_ddot": 0,
        "tle_line1": "1 47719U 21016A   25357.04295999 -.00000067  00000+0  00000+0 0  9999",
        "tle_line2": "2 47719  63.1759  82.5898 7209382 269.1646  15.5425  2.00630806 35258"
      },
      "geometry": {
        "type": "Point",
        "coordinates": [
          -179.18717945626955,
          62.933395477828135
        ]
      }
    },
    {
      "type": "Feature",
      "properties": {
        "norad_id": 49008,
        "name": "FENGYUN 3E",
        "group": "weather",
        "lat": 19.880487621773202,
        "lon": -3.527801483510943,
        "alt_km": 826.4498100958936,
        "timestamp": "2025-12-25T07:00:33.686359+00:00",
        "meta_object_name": "FENGYUN 3E",
        "meta_object_id": "2021-062A",
        "meta_epoch": "2025-12-25T00:08:59.663904",
        "meta_mean_motion": 14.19880478,
        "meta_eccentricity": 9.536e-05,
        "meta_inclination": 98.7476,
        "meta_ra_of_asc_node": 359.3815,
        "meta_arg_of_pericenter": 191.0635,
        "meta_mean_anomaly": 169.052,
        "meta_ephemeris_type": 0,
        "meta_classification_type": "U",
        "meta_norad_cat_id": 49008,
        "meta_element_set_no": 999,
        "meta_rev_at_epoch": 23186,
        "meta_bstar": -7.5946387e-05,
        "meta_mean_motion_dot": -2.05e-06,
        "meta_mean_motion_ddot": 0,
        "tle_line1": "1 49008U 21062A   25359.00624611 -.00000205  00000+0 -75946-4 0  9999",
        "tle_line2": "2 49008  98.7476 359.3815 0000953 191.0635 169.0520 14.19880478231863"
      },
      "geometry": {
        "type": "Point",
        "coordinates": [
          -3.527801483510943,
          19.880487621773202
        ]
      }
    },
    {
      "type": "Feature",
      "properties": {
        "norad_id": 51850,
        "name": "GOES 18",
        "group": "weather",
        "lat": -0.0002304684863819745,
        "lon": 62.18896667936367,
        "alt_km": 35786.600979548006,
        "timestamp": "2025-12-25T07:00:33.686373+00:00",
        "meta_object_name": "GOES 18",
        "meta_object_id": "2022-021A",
        "meta_epoch": "2025-12-24T19:17:27.996000",
        "meta_mean_motion": 1.00271157,
        "meta_eccentricity": 4.047e-05,
        "meta_inclination": 0.0123,
        "meta_ra_of_asc_node": 248.5858,
        "meta_arg_of_pericenter": 70.5818,
        "meta_mean_anomaly": 286.7694,
        "meta_ephemeris_type": 0,
        "meta_classification_type": "U",
        "meta_norad_cat_id": 51850,
        "meta_element_set_no": 999,
        "meta_rev_at_epoch": 484,
        "meta_bstar": 0,
        "meta_mean_motion_dot": 1.18e-06,
        "meta_mean_motion_ddot": 0,
        "tle_line1": "1 51850U 22021A   25358.80379625  .00000118  00000+0  00000+0 0  9997",
        "tle_line2": "2 51850   0.0123 248.5858 0000404  70.5818 286.7694  1.00271157  4846"
      },
      "geometry": {
        "type": "Point",
        "coordinates": [
          62.18896667936367,
          -0.0002304684863819745
        ]
      }
    },
    {
      "type": "Feature",
      "properties": {
        "norad_id": 54234,
        "name": "NOAA 21 (JPSS-2)",
        "group": "weather",
        "lat": 10.388275137588224,
        "lon": -66.1729185158151,
        "alt_km": 827.2172757420949,
        "timestamp": "2025-12-25T07:00:33.686384+00:00",
        "meta_object_name": "NOAA 21 (JPSS-2)",
        "meta_object_id": "2022-150A",
        "meta_epoch": "2025-12-24T20:48:36.242496",
        "meta_mean_motion": 14.19527401,
        "meta_eccentricity": 0.00016632,
        "meta_inclination": 98.7478,
        "meta_ra_of_asc_node": 295.0249,
        "meta_arg_of_pericenter": 12.9884,
        "meta_mean_anomaly": 347.1335,
        "meta_ephemeris_type": 0,
        "meta_classification_type": "U",
        "meta_norad_cat_id": 54234,
        "meta_element_set_no": 999,
        "meta_rev_at_epoch": 16181,
        "meta_bstar": 7.0672378e-05,
        "meta_mean_motion_dot": 1.05e-06,
        "meta_mean_motion_ddot": 0,
        "tle_line1": "1 54234U 22150A   25358.86708614  .00000105  00000+0  70672-4 0  9992",
        "tle_line2": "2 54234  98.7478 295.0249 0001663  12.9884 347.1335 14.19527401161819"
      },
      "geometry": {
        "type": "Point",
        "coordinates": [
          -66.1729185158151,
          10.388275137588224
        ]
      }
    },
    {
      "type": "Feature",
      "properties": {
        "norad_id": 54743,
        "name": "METEOSAT-12 (MTG-I1)",
        "group": "weather",
        "lat": 0.08054252515268465,
        "lon": -161.15054201361303,
        "alt_km": 35783.72284525273,
        "timestamp": "2025-12-25T07:00:33.686431+00:00",
        "meta_object_name": "METEOSAT-12 (MTG-I1)",
        "meta_object_id": "2022-170C",
        "meta_epoch": "2025-12-24T21:39:29.392992",
        "meta_mean_motion": 1.00270881,
        "meta_eccentricity": 0.0001621,
        "meta_inclination": 0.6994,
        "meta_ra_of_asc_node": 25.6342,
        "meta_arg_of_pericenter": 240.988,
        "meta_mean_anomaly": 151.5996,
        "meta_ephemeris_type": 0,
        "meta_classification_type": "U",
        "meta_norad_cat_id": 54743,
        "meta_element_set_no": 999,
        "meta_rev_at_epoch": 1123,
        "meta_bstar": 0,
        "meta_mean_motion_dot": 1.3e-07,
        "meta_mean_motion_ddot": 0,
        "tle_line1": "1 54743U 22170C   25358.90242353  .00000013  00000+0  00000+0 0  9998",
        "tle_line2": "2 54743   0.6994  25.6342 0001621 240.9880 151.5996  1.00270881 11236"
      },
      "geometry": {
        "type": "Point",
        "coordinates": [
          -161.15054201361303,
          0.08054252515268465
        ]
      }
    }
  ]
}